{"fetched_at":"2026-03-29T16:36:15Z","count":15609,"tles":[{"name":"STARLINK-30455","line1":"1 57942U 23148H   26087.86576406  .00000193  00000+0  18627-4 0  9990","line2":"2 57942  53.1602 295.4118 0001043  80.2934 279.8184 15.30195789141351","category":"Starlink"}]}